#aV2007  5 14  0  0   .00000000      96 DD+AD WGS84 FIT  NGA
## 1427  86400.00000000   900.00000000 54234  .0000000000000
+   30     1  2  3  4  5  6  7  8  9 10 11 12 13 14 16 17 18
+         19 20 21 22 23 24 25 26 27 28 29 30 31  0  0  0  0
+          0  0  0  0  0  0  0  0  0  0  0  0  0  0  0  0  0
+          0  0  0  0  0  0  0  0  0  0  0  0  0  0  0  0  0
+          0  0  0  0  0  0  0  0  0  0  0  0  0  0  0  0  0
++         0  0  0  0  0  0  0  0  0  0  0  0  0  0  0  0  0
++         0  0  0  0  0  0  0  0  0  0  0  0  0  0  0  0  0
++         0  0  0  0  0  0  0  0  0  0  0  0  0  0  0  0  0
++         0  0  0  0  0  0  0  0  0  0  0  0  0  0  0  0  0
++         0  0  0  0  0  0  0  0  0  0  0  0  0  0  0  0  0
%c cc cc ccc ccc cccc cccc cccc cccc ccccc ccccc ccccc ccccc
%c cc cc ccc ccc cccc cccc cccc cccc ccccc ccccc ccccc ccccc
%f  0.0000000  0.000000000  0.00000000000  0.000000000000000
%f  0.0000000  0.000000000  0.00000000000  0.000000000000000
%i    0    0    0    0      0      0      0      0         0
%i    0    0    0    0      0      0      0      0         0
/*      NGA, ST. LOUIS,MO.                                  
/*   EPHEMERIS COMPUTED FROM  3 DAYS OF DATA                
/* CCCCCCCCCCCCCCCCCCCCCCCCCCCCCCCCCCCCCCCCCCCCCCCCCCCCCCCCC
/* CCCCCCCCCCCCCCCCCCCCCCCCCCCCCCCCCCCCCCCCCCCCCCCCCCCCCCCCC
*  2007  5 14 17 45   .00000000                                                 
P  1 -19595.172226 -10642.188884 -14278.883892    127.563747                    
V  1  -9825.372553 -15626.543615  24715.204734       .029075                    
P  2  16078.709604    715.285364 -21306.154446    106.493116                    
V  2  -8544.940721  25251.015289  -5939.538825       .028962                    
P  3 -21310.615167  -5400.000635  14926.604173     57.322398                    
V  3 -11803.099206 -15475.140179 -21808.078214       .056575                    
P  4  10802.515934  12957.942069 -20503.986235     10.932884                    
V  4 -10558.290719  23808.045394   9870.203243      -.001321                    
P  5  16193.012904 -15229.637954 -14658.381166      4.409847                    
V  5  18396.835927  -2048.514215  22969.424167      -.147768                    
P  6   -344.674717 -19848.823292 -17435.633073    182.159599                    
V  6  16634.721094  15479.049713 -17801.880869       .139344                    
P  7  -4732.738938 -21191.098434 -14904.939052    303.415274                    
V  7  15394.326407  12490.926880 -22203.164672      -.169438                    
P  8   2067.188411  21324.780023  15289.286373   -107.308509                    
V  8  -9563.865705  17402.096011 -23233.320836      -.013638                    
P  9  14434.013724 -18715.046844  11295.020026     70.285368                    
V  9  -2362.889949  15366.176281  27293.924197       .016768                    
P 10  26323.259145   -428.692342  -4756.818571    101.868454                    
V 10  -5465.958392   3017.346222 -30971.157325       .005257                    
P 11 -12717.129262  20478.650208  10723.469448     15.906474                    
V 11  -1681.119459 -14619.801190  25961.253614       .009415                    
P 12  20285.798019 -11984.051664 -12092.068334    -44.859016                    
V 12  15733.734666   -207.953158  26417.538702      -.005531                    
P 13   2175.892859  20670.240281 -16664.463953    172.304430                    
V 13 -13558.681980 -15914.002830 -21602.160691       .034622                    
P 14 -16410.122606 -20937.144870    133.078335     20.139134                    
V 14   1513.098665  -1104.891443  32304.952446       .017116                    
P 16 -24367.577675  -3397.803854 -10110.585629    147.773898                    
V 16  12412.124472  -4264.980754 -28091.233418       .030093                    
P 17  15273.381888  21664.432607   2578.936476     68.237955                    
V 17  -4160.367958   -803.195128  31425.611826      -.013150                    
P 18    -20.214302 -15516.243491  21673.722123   -249.880162                    
V 18  27086.880509  -3005.609809  -2473.136215       .008107                    
P 19 -16117.057908   2932.106947  21029.368634     33.904839                    
V 19 -14889.765425 -21879.513712  -8290.268814       .034182                    
P 20 -19522.681772  12747.695184 -12797.021600    -24.604065                    
V 20 -16293.313079    397.692718  25502.855940      -.003495                    
P 21   3541.218841 -24681.911563   8370.254715     76.825796                    
V 21   7435.691345  -8483.467330 -29129.926138       .004806                    
P 22 -12846.705304 -12638.049327  19672.575881    181.923732                    
V 22  24360.689700  -4145.956072  13316.642546       .017717                    
P 23  -7439.586436  13983.347691 -21371.679939    166.363628                    
V 23 -17613.223943 -20404.897215  -7444.978170       .026287                    
P 24  12606.788039 -23306.027485  -3227.106657       .013417                    
V 24    752.845879   5033.505408 -31121.128073       .028592                    
P 25 -11277.102107  23014.047411  -6968.410786    251.125179                    
V 25   -114.244381  -9675.742648 -29934.007699       .266351                    
P 26  17088.713183    805.829004  20043.930196   -193.953733                    
V 26  15465.307851  21141.281218 -13186.156740      -.206708                    
P 27  -2145.608584  25372.614103   7743.920938    110.679481                    
V 27  -5150.829910   7871.465031 -29924.523065       .022034                    
P 28   9106.125667  13693.962126  21257.816220      1.141566                    
V 28 -25809.454716   4220.257740   8131.380716      -.007736                    
P 29  19108.613212   4232.287866  18336.685540      2.703254                    
V 29  13761.496809  18018.137284 -18350.770037       .004171                    
P 30   9759.736492 -16037.816174 -19050.035274     33.803718                    
V 30  23472.535544  -3221.552847  15094.266768       .010844                    
P 31 -11007.338336 -11971.662471 -20787.543352     19.619517                    
V 31  10104.659953 -24902.760901   8976.917810      -.004595                    
EOF
